STARLINK-36262          
1 67201U 25304K   26157.49916591  .00008417  00000+0  71212-3 0  9990
2 67201  70.0020 310.6920 0002737 270.3439  89.7406 14.98345272 27182
STARLINK-36263          
1 67202U 25304L   26157.48664390  .00004334  00000+0  37070-3 0  9995
2 67202  70.0032 310.6467 0003030 268.3835  91.6977 14.98337914 27185
STARLINK-36224          
1 67203U 25304M   26157.54505513  .00003444  00000+0  29621-3 0  9998
2 67203  70.0017 310.4426 0002743 267.5127  92.5718 14.98337078 27192
STARLINK-36185          
1 67204U 25304N   26157.52835708  .00004846  00000+0  41356-3 0  9995
2 67204  70.0017 310.3882 0003015 266.1518  93.9296 14.98341348 27191
STARLINK-36197          
1 67205U 25304P   26157.51583660  .00003767  00000+0  32322-3 0  9996
2 67205  70.0023 310.3467 0002846 272.3284  87.7549 14.98339090 27168
STARLINK-36056          
1 67206U 25304Q   26157.49933087  .00006456  00000+0  54823-3 0  9994
2 67206  70.0006 310.6871 0003052 266.6932  93.3878 14.98341101 27151
STARLINK-36225          
1 67207U 25304R   26157.48263539  .00003376  00000+0  29056-3 0  9990
2 67207  70.0019 310.6282 0002791 267.3197  92.7643 14.98336376 27186
STARLINK-36265          
1 67208U 25304S   26157.49500947  .00007833  00000+0  66343-3 0  9991
2 67208  70.0022 310.6778 0002653 267.9126  92.1729 14.98333642 27188
STARLINK-36226          
1 67209U 25304T   26157.50750660  .00013954  00000+0  11740-2 0  9994
2 67209  70.0020 310.7217 0003458 268.9452  91.1311 14.98359062 27183
STARLINK-36173          
1 67210U 25304U   26157.54088081  .00006792  00000+0  57627-3 0  9998
2 67210  70.0022 310.4338 0002380 264.9311  95.1576 14.98342445 27196
STARLINK-36280          
1 67211U 25304V   26157.53253155  .00004064  00000+0  34808-3 0  9990
2 67211  70.0015 310.4067 0002360 266.1780  93.9109 14.98340590 27197
STARLINK-36213          
1 67212U 25304W   26157.52418250  .00004610  00000+0  39374-3 0  9999
2 67212  70.0022 310.3746 0003156 257.9071 102.1734 14.98341200 27190
STARLINK-36199          
1 67213U 25304X   26157.51166134  .00004162  00000+0  35633-3 0  9996
2 67213  70.0022 310.3300 0003103 268.3049  91.7755 14.98339790 27197
STARLINK-36203          
1 67214U 25304Y   26157.50352490  .00007310  00000+0  61958-3 0  9995
2 67214  70.0011 310.7027 0002960 278.2427  81.8397 14.98345927 27186
STARLINK-36221          
1 67215U 25304Z   26157.49515806  .00005212  00000+0  44422-3 0  9992
2 67215  70.0007 310.6723 0003046 269.8347  90.2463 14.98337571 27181
STARLINK-36212          
1 67216U 25304AA  26157.48680941  .00003717  00000+0  31912-3 0  9993
2 67216  70.0025 310.6408 0002748 267.8858  92.1986 14.98336426 27184
STARLINK-36216          
1 67217U 25304AB  26157.54521931  .00004609  00000+0  39368-3 0  9998
2 67217  70.0022 310.4435 0002754 268.3148  91.7696 14.98339503 27187
STARLINK-36211          
1 67218U 25304AC  26157.53687027  .00003634  00000+0  31209-3 0  9990
2 67218  70.0019 310.4155 0003089 262.8899  97.1909 14.98337836 27169
STARLINK-36490          
1 67305U 26002A   26157.49327005  .00023261  00000+0  85116-3 0  9999
2 67305  42.9999 183.4578 0002280 277.5491  82.5101 15.27616764 24725
STARLINK-36488          
1 67306U 26002B   26157.34080580  .00034180  00000+0  12449-2 0  9998
2 67306  43.0006 184.9024 0000441 144.0326 216.0556 15.27605894 24631
STARLINK-36481          
1 67307U 26002C   26155.36507842  .00021919  00000+0  80218-3 0  9990
2 67307  43.0024 195.8733 0001857 283.8629  76.2016 15.27640390 24334
STARLINK-36449          
1 67308U 26002D   26156.40355813  .00006006  00000+0  22744-3 0  9996
2 67308  43.0045 189.9069 0001497 276.3203  83.7478 15.27602929 24554
STARLINK-36482          
1 67309U 26002E   26156.39969488  .00013326  00000+0  49275-3 0  9995
2 67309  42.9992 189.8732 0000666 275.1630  84.9146 15.27588945 24497
STARLINK-36491          
1 67310U 26002F   26156.15999454  .00016108  00000+0  59245-3 0  9996
2 67310  43.0002 191.5252 0001102 288.3671  71.7060 15.27643769 24458
STARLINK-36495          
1 67311U 26002G   26157.37021251  .00023531  00000+0  86145-3 0  9990
2 67311  42.9975 184.2554 0000344 222.5714 137.5111 15.27596308 24808
STARLINK-36485          
1 67312U 26002H   26157.35607734  .00026733  00000+0  97656-3 0  9991
2 67312  43.0026 184.1471 0002605 279.0094  81.0462 15.27608763 24648
STARLINK-36445          
1 67313U 26002J   26157.34465948  .00035646  00000+0  12975-2 0  9993
2 67313  42.9897 184.9305 0000151 156.6938 203.3921 15.27609346 24791
STARLINK-36476          
1 67314U 26002K   26156.01509009  .00031054  00000+0  11294-2 0  9996
2 67314  43.0007 192.1454 0002122 308.3168  51.7492 15.27691203 24425
STARLINK-36463          
1 67315U 26002L   26157.36764953  .00011194  00000+0  41515-3 0  9990
2 67315  42.9953 184.2347 0001076 264.1637  95.9092 15.27621043 24706
STARLINK-36461          
1 67316U 26002M   26157.36378730  .00022674  00000+0  88121-3 0  9994
2 67316  42.9985 184.2024 0008759  28.3207 331.8118 15.25605757 24806
