OBJECT_NAME,OBJECT_ID,EPOCH,MEAN_MOTION,ECCENTRICITY,INCLINATION,RA_OF_ASC_NODE,ARG_OF_PERICENTER,MEAN_ANOMALY,EPHEMERIS_TYPE,CLASSIFICATION_TYPE,NORAD_CAT_ID,ELEMENT_SET_NO,REV_AT_EPOCH,BSTAR,MEAN_MOTION_DOT,MEAN_MOTION_DDOT
STARLINK-36262,2025-304K,2026-06-06T11:58:47.934624,14.98345272,.00027374,70.0020,310.6920,270.3439,89.7406,0,U,67201,999,2718,.71212351E-3,.8417E-4,0
STARLINK-36263,2025-304L,2026-06-06T11:40:46.032960,14.98337914,.00030309,70.0032,310.6467,268.3835,91.6977,0,U,67202,999,2718,.37069666E-3,.4334E-4,0
STARLINK-36224,2025-304M,2026-06-06T13:04:52.763232,14.98337078,.00027435,70.0017,310.4426,267.5127,92.5718,0,U,67203,999,2719,.29620579E-3,.3444E-4,0
STARLINK-36185,2025-304N,2026-06-06T12:40:50.051712,14.98341348,.00030153,70.0017,310.3882,266.1518,93.9296,0,U,67204,999,2719,.4135552E-3,.4846E-4,0
STARLINK-36197,2025-304P,2026-06-06T12:22:48.282240,14.98339090,.00028463,70.0023,310.3467,272.3284,87.7549,0,U,67205,999,2716,.32322206E-3,.3767E-4,0
STARLINK-36056,2025-304Q,2026-06-06T11:59:02.187168,14.98341101,.00030525,70.0006,310.6871,266.6932,93.3878,0,U,67206,999,2715,.5482342E-3,.6456E-4,0
STARLINK-36225,2025-304R,2026-06-06T11:34:59.697696,14.98336376,.00027912,70.0019,310.6282,267.3197,92.7643,0,U,67207,999,2718,.29055606E-3,.3376E-4,0
STARLINK-36265,2025-304S,2026-06-06T11:52:48.818208,14.98333642,.00026534,70.0022,310.6778,267.9126,92.1729,0,U,67208,999,2718,.66343447E-3,.7833E-4,0
STARLINK-36226,2025-304T,2026-06-06T12:10:48.570240,14.98359062,.00034581,70.0020,310.7217,268.9452,91.1311,0,U,67209,999,2718,.11740376E-2,.13954E-3,0
STARLINK-36173,2025-304U,2026-06-06T12:58:52.101984,14.98342445,.00023801,70.0022,310.4338,264.9311,95.1576,0,U,67210,999,2719,.57626939E-3,.6792E-4,0
STARLINK-36280,2025-304V,2026-06-06T12:46:50.725920,14.98340590,.00023602,70.0015,310.4067,266.1780,93.9109,0,U,67211,999,2719,.34808463E-3,.4064E-4,0
STARLINK-36213,2025-304W,2026-06-06T12:34:49.368000,14.98341200,.00031561,70.0022,310.3746,257.9071,102.1734,0,U,67212,999,2719,.39374335E-3,.461E-4,0
STARLINK-36199,2025-304X,2026-06-06T12:16:47.539776,14.98339790,.00031032,70.0022,310.3300,268.3049,91.7755,0,U,67213,999,2719,.35632707E-3,.4162E-4,0
STARLINK-36203,2025-304Y,2026-06-06T12:05:04.551360,14.98345927,.00029605,70.0011,310.7027,278.2427,81.8397,0,U,67214,999,2718,.61958081E-3,.731E-4,0
STARLINK-36221,2025-304Z,2026-06-06T11:53:01.656384,14.98337571,.00030462,70.0007,310.6723,269.8347,90.2463,0,U,67215,999,2718,.44421933E-3,.5212E-4,0
STARLINK-36212,2025-304AA,2026-06-06T11:41:00.333024,14.98336426,.0002748,70.0025,310.6408,267.8858,92.1986,0,U,67216,999,2718,.31912386E-3,.3717E-4,0
STARLINK-36216,2025-304AB,2026-06-06T13:05:06.948384,14.98339503,.00027541,70.0022,310.4435,268.3148,91.7696,0,U,67217,999,2718,.39368233E-3,.4609E-4,0
STARLINK-36211,2025-304AC,2026-06-06T12:53:05.591328,14.98337836,.00030894,70.0019,310.4155,262.8899,97.1909,0,U,67218,999,2716,.31208859E-3,.3634E-4,0
STARLINK-36490,2026-002A,2026-06-06T11:50:18.532320,15.27616764,.000228,42.9999,183.4578,277.5491,82.5101,0,U,67305,999,2472,.85115709E-3,.23261E-3,0
STARLINK-36488,2026-002B,2026-06-06T08:10:45.621120,15.27605894,.00004419,43.0006,184.9024,144.0326,216.0556,0,U,67306,999,2463,.12448923E-2,.3418E-3,0
STARLINK-36481,2026-002C,2026-06-04T08:45:42.775488,15.27640390,.00018571,43.0024,195.8733,283.8629,76.2016,0,U,67307,999,2433,.80218168E-3,.21919E-3,0
STARLINK-36449,2026-002D,2026-06-05T09:41:07.422432,15.27602929,.00014973,43.0045,189.9069,276.3203,83.7478,0,U,67308,999,2455,.22743819E-3,.6006E-4,0
STARLINK-36482,2026-002E,2026-06-05T09:35:33.637632,15.27588945,.00006666,42.9992,189.8732,275.1630,84.9146,0,U,67309,999,2449,.49274708E-3,.13326E-3,0
STARLINK-36491,2026-002F,2026-06-05T03:50:23.528256,15.27643769,.00011026,43.0002,191.5252,288.3671,71.7060,0,U,67310,999,2445,.59245374E-3,.16108E-3,0
STARLINK-36495,2026-002G,2026-06-06T08:53:06.360864,15.27596308,.00003441,42.9975,184.2554,222.5714,137.5111,0,U,67311,999,2480,.86145285E-3,.23531E-3,0
STARLINK-36485,2026-002H,2026-06-06T08:32:45.082176,15.27608763,.0002605,43.0026,184.1471,279.0094,81.0462,0,U,67312,999,2464,.97656061E-3,.26733E-3,0
STARLINK-36445,2026-002J,2026-06-06T08:16:18.579072,15.27609346,.0000151,42.9897,184.9305,156.6938,203.3921,0,U,67313,999,2479,.12974654E-2,.35646E-3,0
STARLINK-36476,2026-002K,2026-06-05T00:21:43.783776,15.27691203,.0002122,43.0007,192.1454,308.3168,51.7492,0,U,67314,999,2442,.11294009E-2,.31054E-3,0
STARLINK-36463,2026-002L,2026-06-06T08:49:24.919392,15.27621043,.00010763,42.9953,184.2347,264.1637,95.9092,0,U,67315,999,2470,.41514778E-3,.11194E-3,0
STARLINK-36461,2026-002M,2026-06-06T08:43:51.222720,15.25605757,.00087595,42.9985,184.2024,28.3207,331.8118,0,U,67316,999,2480,.88121255E-3,.22674E-3,0
